ORBCOMM FM37 [-]        
1 33064U 08031E   23226.92517647  .00001352  00000+0  22939-3 0  9992
2 33064  48.4416 286.3924 0005911  12.8863 157.4215 14.74924025814986
ORBCOMM FM40 [-]        
1 33065U 08031F   23227.10318824  .00001650  00000+0  26721-3 0  9994
2 33065  48.4437 277.1822 0007212  22.0326 355.5957 14.75912470815143
VESSELSAT 1 [-]         
1 37840U 11058C   23227.29388773  .00000383  00000+0  64891-4 0  9995
2 37840  19.9601 198.4517 0013690 358.4116   1.6244 14.11051091611516
ORBCOMM FM109 [+]       
1 40086U 14040A   23226.65415381  .00000778  00000+0  21303-3 0  9998
2 40086  47.0047 306.3270 0001363 148.3712 211.7254 14.55937720483114
ORBCOMM FM107 [+]       
1 40087U 14040B   23226.68765930  .00000927  00000+0  24718-3 0  9999
2 40087  47.0065 307.0850 0000553  35.0100 325.0821 14.55831283483116
ORBCOMM FM106 [-]       
1 40088U 14040C   23227.33488037  .00001183  00000+0  24711-3 0  9991
2 40088  47.0607 176.6683 0018093 195.3839 164.6502 14.65891127485007
ORBCOMM FM111 [-]       
1 40089U 14040D   23227.06444660  .00001561  00000+0  23063-3 0  9995
2 40089  47.0057 109.8358 0033969 230.3076 129.4821 14.79777303490481
ORBCOMM FM104 [-]       
1 40090U 14040E   23227.41963071  .00000666  00000+0  19393-3 0  9994
2 40090  47.0072 329.6186 0016760  17.1531 342.9916 14.54407175482868
